ONEWEB-0377             
1 49303U 21090AA  24004.24663783  .00000040  00000+0  66281-4 0  9990
2 49303  87.9196  92.5783 0001905  98.6286 261.5063 13.20776391112386
ONEWEB-0378             
1 49304U 21090AB  24004.60082095  .00000098  00000+0  20923-3 0  9997
2 49304  87.9200  92.5211 0001516 112.1727 247.9567 13.20770300111693
ONEWEB-0379             
1 49305U 21090AC  24004.34941185  .00000265  00000+0  68082-3 0  9997
2 49305  87.8972 107.8267 0001596 110.7509 249.3792 13.14503861110009
ONEWEB-0380             
1 49306U 21090AD  24004.39532526 -.00000062  00000+0 -18716-3 0  9994
2 49306  87.9199 123.0845 0001642  97.3640 262.7679 13.19725952108408
ONEWEB-0381             
1 49307U 21090AE  24004.54636892  .00000011  00000+0 -51272-5 0  9992
2 49307  87.9196  92.5249 0001763 101.5953 258.5378 13.20769970111732
ONEWEB-0382             
1 49308U 21090AF  24004.23071376 -.00000009  00000+0 -52869-4 0  9999
2 49308  87.9197  92.5859 0001222 107.3889 252.7378 13.20770494111686
ONEWEB-0383             
1 49309U 21090AG  24003.81024260  .00000184  00000+0  46250-3 0  9991
2 49309  87.8980 107.9261 0001460 114.3846 245.7437 13.14501617109967
ONEWEB-0384             
1 49310U 21090AH  24004.22755579 -.00000282  00000+0 -72483-3 0  9991
2 49310  87.9197  92.5954 0001086  85.9757 274.1500 13.20773944111697
